[{"OBJECT_NAME":"STARLINK-5561","OBJECT_ID":"2023-058W","EPOCH":"2026-03-09T23:32:34.414368","MEAN_MOTION":15.01265447,"ECCENTRICITY":0.00011974,"INCLINATION":97.6032,"RA_OF_ASC_NODE":70.4783,"ARG_OF_PERICENTER":140.3947,"MEAN_ANOMALY":219.7365,"EPHEMERIS_TYPE":0,"CLASSIFICATION_TYPE":"U","NORAD_CAT_ID":56337,"ELEMENT_SET_NO":999,"REV_AT_EPOCH":15817,"BSTAR":-9.0581683e-5,"MEAN_MOTION_DOT":-1.222e-5,"MEAN_MOTION_DDOT":0},{"OBJECT_NAME":"CZ-6A DEB","OBJECT_ID":"2024-140DH","EPOCH":"2026-03-09T14:42:58.375296","MEAN_MOTION":14.89586287,"ECCENTRICITY":0.0114118,"INCLINATION":89.149,"RA_OF_ASC_NODE":291.0293,"ARG_OF_PERICENTER":161.7952,"MEAN_ANOMALY":198.7416,"EPHEMERIS_TYPE":0,"CLASSIFICATION_TYPE":"U","NORAD_CAT_ID":60704,"ELEMENT_SET_NO":999,"REV_AT_EPOCH":8478,"BSTAR":0.0015025,"MEAN_MOTION_DOT":0.00016252,"MEAN_MOTION_DDOT":0}]
